{"type": "FeatureCollection", "features": [ {"type": "Feature", "properties": {"norad_id": 30914, "name": "FENGYUN 1C DEB", "group": "fengyun-1c-debris", "lat": -71.26947895019761, "lon": -85.4217782449676, "alt_km": 916.3578644421477, "timestamp": "2025-12-26T05:31:12.786885+00:00", "meta": {"OBJECT_NAME": "FENGYUN 1C DEB", "OBJECT_ID": "1999-025AZC", "EPOCH": "2025-12-23T09:59:19.017312", "MEAN_MOTION": 13.08882678, "ECCENTRICITY": 0.05169044, "INCLINATION": 99.9832, "RA_OF_ASC_NODE": 240.6486, "ARG_OF_PERICENTER": 330.1456, "MEAN_ANOMALY": 27.1068, "EPHEMERIS_TYPE": 0, "CLASSIFICATION_TYPE": "U", "NORAD_CAT_ID": 30914, "ELEMENT_SET_NO": 999, "REV_AT_EPOCH": 59215, "BSTAR": 0.0026040863, "MEAN_MOTION_DOT": 1.674e-05, "MEAN_MOTION_DDOT": 0}, "tle": {"line1": "1 30914U 99025AZC 25357.41619233  .00001674  00000+0  26041-2 0  9995", "line2": "2 30914  99.9832 240.6486 0516904 330.1456  27.1068 13.08882678592153"}}, "geometry": {"type": "Point", "coordinates": [-85.4217782449676, -71.26947895019761]}}, {"type": "Feature", "properties": {"norad_id": 30915, "name": "FENGYUN 1C DEB", "group": "fengyun-1c-debris", "lat": -61.99169434150215, "lon": -120.55820089731488, "alt_km": 829.7737235455024, "timestamp": "2025-12-26T05:31:12.786896+00:00", "meta": {"OBJECT_NAME": "FENGYUN 1C DEB", "OBJECT_ID": "1999-025AZD", "EPOCH": "2025-12-25T21:38:48.521472", "MEAN_MOTION": 14.25133348, "ECCENTRICITY": 0.00531106, "INCLINATION": 98.9406, "RA_OF_ASC_NODE": 76.3231, "ARG_OF_PERICENTER": 131.4683, "MEAN_ANOMALY": 229.1074, "EPHEMERIS_TYPE": 0, "CLASSIFICATION_TYPE": "U", "NORAD_CAT_ID": 30915, "ELEMENT_SET_NO": 999, "REV_AT_EPOCH": 96700, "BSTAR": 0.001527005, "MEAN_MOTION_DOT": 3.592e-05, "MEAN_MOTION_DDOT": 0}, "tle": {"line1": "1 30915U 99025AZD 25359.90195048  .00003592  00000+0  15270-2 0  9998", "line2": "2 30915  98.9406  76.3231 0053110 131.4683 229.1074 14.25133348967005"}}, "geometry": {"type": "Point", "coordinates": [-120.55820089731488, -61.99169434150215]}}, {"type": "Feature", "properties": {"norad_id": 30916, "name": "FENGYUN 1C DEB", "group": "fengyun-1c-debris", "lat": -38.8972969287131, "lon": -126.79385513047198, "alt_km": 823.7976445152481, "timestamp": "2025-12-26T05:31:12.786906+00:00", "meta": {"OBJECT_NAME": "FENGYUN 1C DEB", "OBJECT_ID": "1999-025AZE", "EPOCH": "2025-12-24T03:19:11.326656", "MEAN_MOTION": 14.08841468, "ECCENTRICITY": 0.00633965, "INCLINATION": 99.0015, "RA_OF_ASC_NODE": 58.4657, "ARG_OF_PERICENTER": 226.4081, "MEAN_ANOMALY": 190.1574, "EPHEMERIS_TYPE": 0, "CLASSIFICATION_TYPE": "U", "NORAD_CAT_ID": 30916, "ELEMENT_SET_NO": 999, "REV_AT_EPOCH": 96004, "BSTAR": 0.0011422877, "MEAN_MOTION_DOT": 1.964e-05, "MEAN_MOTION_DDOT": 0}, "tle": {"line1": "1 30916U 99025AZE 25358.13832554  .00001964  00000+0  11423-2 0  9990", "line2": "2 30916  99.0015  58.4657 0063396 226.4081 190.1574 14.08841468960040"}}, "geometry": {"type": "Point", "coordinates": [-126.79385513047198, -38.8972969287131]}}, {"type": "Feature", "properties": {"norad_id": 30918, "name": "FENGYUN 1C DEB", "group": "fengyun-1c-debris", "lat": 77.95424539055365, "lon": 67.3731692989804, "alt_km": 783.6430560596809, "timestamp": "2025-12-26T05:31:12.786916+00:00", "meta": {"OBJECT_NAME": "FENGYUN 1C DEB", "OBJECT_ID": "1999-025AZG", "EPOCH": "2025-12-23T19:23:57.178752", "MEAN_MOTION": 13.96854434, "ECCENTRICITY": 0.01571218, "INCLINATION": 98.4166, "RA_OF_ASC_NODE": 109.0886, "ARG_OF_PERICENTER": 94.6413, "MEAN_ANOMALY": 55.6962, "EPHEMERIS_TYPE": 0, "CLASSIFICATION_TYPE": "U", "NORAD_CAT_ID": 30918, "ELEMENT_SET_NO": 999, "REV_AT_EPOCH": 95207, "BSTAR": 0.00069575463, "MEAN_MOTION_DOT": 1.037e-05, "MEAN_MOTION_DDOT": 0}, "tle": {"line1": "1 30918U 99025AZG 25357.80830068  .00001037  00000+0  69575-3 0  9996", "line2": "2 30918  98.4166 109.0886 0157121  94.6413  55.6962 13.96854434952076"}}, "geometry": {"type": "Point", "coordinates": [67.3731692989804, 77.95424539055365]}}, {"type": "Feature", "properties": {"norad_id": 30920, "name": "FENGYUN 1C DEB", "group": "fengyun-1c-debris", "lat": -49.71184861929662, "lon": -49.11759253003179, "alt_km": 920.0021379254003, "timestamp": "2025-12-26T05:31:12.786926+00:00", "meta": {"OBJECT_NAME": "FENGYUN 1C DEB", "OBJECT_ID": "1999-025AZJ", "EPOCH": "2025-12-25T03:01:04.024128", "MEAN_MOTION": 14.1677202, "ECCENTRICITY": 0.0107912, "INCLINATION": 98.9178, "RA_OF_ASC_NODE": 140.4497, "ARG_OF_PERICENTER": 62.436, "MEAN_ANOMALY": 298.7727, "EPHEMERIS_TYPE": 0, "CLASSIFICATION_TYPE": "U", "NORAD_CAT_ID": 30920, "ELEMENT_SET_NO": 999, "REV_AT_EPOCH": 95269, "BSTAR": 0.0028203, "MEAN_MOTION_DOT": 5.934e-05, "MEAN_MOTION_DDOT": 0}, "tle": {"line1": "1 30920U 99025AZJ 25359.12574102  .00005934  00000+0  28203-2 0  9992", "line2": "2 30920  98.9178 140.4497 0107912  62.4360 298.7727 14.16772020952691"}}, "geometry": {"type": "Point", "coordinates": [-49.11759253003179, -49.71184861929662]}}, {"type": "Feature", "properties": {"norad_id": 30921, "name": "FENGYUN 1C DEB", "group": "fengyun-1c-debris", "lat": 2.9473971031757698, "lon": -91.55865257764623, "alt_km": 796.4648119411149, "timestamp": "2025-12-26T05:31:12.786936+00:00", "meta": {"OBJECT_NAME": "FENGYUN 1C DEB", "OBJECT_ID": "1999-025AZK", "EPOCH": "2025-12-25T17:40:43.947264", "MEAN_MOTION": 14.32847176, "ECCENTRICITY": 0.00163764, "INCLINATION": 98.8416, "RA_OF_ASC_NODE": 87.4789, "ARG_OF_PERICENTER": 355.7556, "MEAN_ANOMALY": 157.5685, "EPHEMERIS_TYPE": 0, "CLASSIFICATION_TYPE": "U", "NORAD_CAT_ID": 30921, "ELEMENT_SET_NO": 999, "REV_AT_EPOCH": 97010, "BSTAR": 0.0017711917, "MEAN_MOTION_DOT": 4.797e-05, "MEAN_MOTION_DDOT": 0}, "tle": {"line1": "1 30921U 99025AZK 25359.73661976  .00004797  00000+0  17712-2 0  9995", "line2": "2 30921  98.8416  87.4789 0016376 355.7556 157.5685 14.32847176970102"}}, "geometry": {"type": "Point", "coordinates": [-91.55865257764623, 2.9473971031757698]}}, {"type": "Feature", "properties": {"norad_id": 30922, "name": "FENGYUN 1C DEB", "group": "fengyun-1c-debris", "lat": 77.17202501705448, "lon": -122.41037889195161, "alt_km": 825.381617395702, "timestamp": "2025-12-26T05:31:12.786946+00:00", "meta": {"OBJECT_NAME": "FENGYUN 1C DEB", "OBJECT_ID": "1999-025AZL", "EPOCH": "2025-12-25T07:20:25.155744", "MEAN_MOTION": 14.17489831, "ECCENTRICITY": 0.0014072, "INCLINATION": 98.6396, "RA_OF_ASC_NODE": 14.8018, "ARG_OF_PERICENTER": 18.7792, "MEAN_ANOMALY": 47.2427, "EPHEMERIS_TYPE": 0, "CLASSIFICATION_TYPE": "U", "NORAD_CAT_ID": 30922, "ELEMENT_SET_NO": 999, "REV_AT_EPOCH": 96742, "BSTAR": 0.0006013, "MEAN_MOTION_DOT": 1.178e-05, "MEAN_MOTION_DDOT": 0}, "tle": {"line1": "1 30922U 99025AZL 25359.30584671  .00001178  00000+0  60130-3 0  9998", "line2": "2 30922  98.6396  14.8018 0014072  18.7792  47.2427 14.17489831967429"}}, "geometry": {"type": "Point", "coordinates": [-122.41037889195161, 77.17202501705448]}}, {"type": "Feature", "properties": {"norad_id": 30925, "name": "FENGYUN 1C DEB", "group": "fengyun-1c-debris", "lat": 34.10577100240961, "lon": 126.50472860880805, "alt_km": 768.1094616615255, "timestamp": "2025-12-26T05:31:12.786956+00:00", "meta": {"OBJECT_NAME": "FENGYUN 1C DEB", "OBJECT_ID": "1999-025AZP", "EPOCH": "2025-12-25T21:38:19.389120", "MEAN_MOTION": 14.43333653, "ECCENTRICITY": 0.00333727, "INCLINATION": 98.8812, "RA_OF_ASC_NODE": 132.2408, "ARG_OF_PERICENTER": 199.5802, "MEAN_ANOMALY": 289.8255, "EPHEMERIS_TYPE": 0, "CLASSIFICATION_TYPE": "U", "NORAD_CAT_ID": 30925, "ELEMENT_SET_NO": 999, "REV_AT_EPOCH": 97262, "BSTAR": 0.0026783598, "MEAN_MOTION_DOT": 9.054e-05, "MEAN_MOTION_DDOT": 0}, "tle": {"line1": "1 30925U 99025AZP 25359.90161330  .00009054  00000+0  26784-2 0  9997", "line2": "2 30925  98.8812 132.2408 0033372 199.5802 289.8255 14.43333653972629"}}, "geometry": {"type": "Point", "coordinates": [126.50472860880805, 34.10577100240961]}}, {"type": "Feature", "properties": {"norad_id": 30926, "name": "FENGYUN 1C DEB", "group": "fengyun-1c-debris", "lat": -78.26219204044244, "lon": 74.2480192871904, "alt_km": 577.6783193541523, "timestamp": "2025-12-26T05:31:12.786967+00:00", "meta": {"OBJECT_NAME": "FENGYUN 1C DEB", "OBJECT_ID": "1999-025AZQ", "EPOCH": "2025-12-25T02:32:25.846080", "MEAN_MOTION": 14.89526144, "ECCENTRICITY": 0.01644874, "INCLINATION": 98.8038, "RA_OF_ASC_NODE": 301.2337, "ARG_OF_PERICENTER": 342.0877, "MEAN_ANOMALY": 17.4581, "EPHEMERIS_TYPE": 0, "CLASSIFICATION_TYPE": "U", "NORAD_CAT_ID": 30926, "ELEMENT_SET_NO": 999, "REV_AT_EPOCH": 951, "BSTAR": 0.00070364479, "MEAN_MOTION_DOT": 8.583e-05, "MEAN_MOTION_DDOT": 0}, "tle": {"line1": "1 30926U 99025AZQ 25359.10585470  .00008583  00000+0  70364-3 0  9995", "line2": "2 30926  98.8038 301.2337 0164487 342.0877  17.4581 14.89526144  9513"}}, "geometry": {"type": "Point", "coordinates": [74.2480192871904, -78.26219204044244]}}, {"type": "Feature", "properties": {"norad_id": 30927, "name": "FENGYUN 1C DEB", "group": "fengyun-1c-debris", "lat": 18.9141738543741, "lon": -115.86931563929089, "alt_km": 932.1392049646247, "timestamp": "2025-12-26T05:31:12.786977+00:00", "meta": {"OBJECT_NAME": "FENGYUN 1C DEB", "OBJECT_ID": "1999-025AZR", "EPOCH": "2025-12-24T03:20:02.562720", "MEAN_MOTION": 14.09040161, "ECCENTRICITY": 0.00983671, "INCLINATION": 99.1815, "RA_OF_ASC_NODE": 58.8239, "ARG_OF_PERICENTER": 333.5888, "MEAN_ANOMALY": 26.0286, "EPHEMERIS_TYPE": 0, "CLASSIFICATION_TYPE": "U", "NORAD_CAT_ID": 30927, "ELEMENT_SET_NO": 999, "REV_AT_EPOCH": 95844, "BSTAR": 0.0015378129, "MEAN_MOTION_DOT": 2.741e-05, "MEAN_MOTION_DDOT": 0}, "tle": {"line1": "1 30927U 99025AZR 25358.13891855  .00002741  00000+0  15378-2 0  9998", "line2": "2 30927  99.1815  58.8239 0098367 333.5888  26.0286 14.09040161958442"}}, "geometry": {"type": "Point", "coordinates": [-115.86931563929089, 18.9141738543741]}}]}